SV_TAXONOMY,TAXONOMY_NAME,RG_REFERENCE,RG_NAME,SV_REFERENCE,SV_NAME,SV_DESCRIPTION,SL_REFERENCE,LC_REFERENCE,PHONE_NUMBER,WEBSITE,EMAIL_ADDRESS,WHEELCHAIR_ACCESSIBLE,LANGUAGE,HOURS,STREET_NUMBER,CITY,PROVINCE,POSTAL_CODE,LATITUDE,LONGITUDE,811_LINK
LD-1700,Emergency Room Care,17643939,BC Children's Hospital,17643949,Emergency Department,Provides emergency medical care for children 0 - 16 years of age.,17643951,17643950,6048752045,www.bcchildrens.ca/our-services/hospital-services/emergency-services,,N,Interpreter services available,24 hours a day/ 7 days a week,4480 Oak Street,Vancouver,BC,V6H 3N1,49.244569,-123.125683,http://www.healthlinkbc.ca/find/resource.asp?First=1&org=53965&agencynum=17643949&SiteResourceAgencyNum=17643950
LD-1700,Emergency Room Care,17644351,Fraser Health Authority,17645045,Emergency Department Services,Provides 24-hour emergency services that address urgent care needs for individuals who walk into the department or are transported there via ground or air ambulance service.,17645046,17644367,6048514700,www.fraserhealth.ca/patients-and-visitors/when-to-use-emergency/,,N,,,32900 Marshall Road,Abbotsford,BC,V2S 0C2,49.038152,-122.313003,http://www.healthlinkbc.ca/find/resource.asp?First=1&org=53965&agencynum=17645045&SiteResourceAgencyNum=17644367
LD-1700,Emergency Room Care,17644351,Fraser Health Authority,17645045,Emergency Department Services,Provides 24-hour emergency services that address urgent care needs for individuals who walk into the department or are transported there via ground or air ambulance service.,17645054,17644353,6044344211,www.fraserhealth.ca/patients-and-visitors/when-to-use-emergency/,,N,,24-Jul,3935 Kincaid Street,Burnaby,BC,V5G 2X6,49.248776,-123.016837,http://www.healthlinkbc.ca/find/resource.asp?First=1&org=53965&agencynum=17645045&SiteResourceAgencyNum=17644353
LD-1700,Emergency Room Care,17644351,Fraser Health Authority,17645045,Emergency Department Services,Provides 24-hour emergency services that address urgent care needs for individuals who walk into the department or are transported there via ground or air ambulance service.,17645048,17644355,6047954141,www.fraserhealth.ca/patients-and-visitors/when-to-use-emergency/,,N,,,45600 Menholm Road,Chilliwack,BC,V2P 1P7,49.165763,-121.962422,http://www.healthlinkbc.ca/find/resource.asp?First=1&org=53965&agencynum=17645045&SiteResourceAgencyNum=17644355
LD-1700,Emergency Room Care,17644351,Fraser Health Authority,17645045,Emergency Department Services,Provides 24-hour emergency services that address urgent care needs for individuals who walk into the department or are transported there via ground or air ambulance service.,17645057,17644361,6049461121,www.fraserhealth.ca/patients-and-visitors/when-to-use-emergency/,,N,,,5800 Mountain View Boulevard,Delta,BC,V4K 3V6,49.08461,-123.059929,http://www.healthlinkbc.ca/find/resource.asp?First=1&org=53965&agencynum=17645045&SiteResourceAgencyNum=17644361
LD-1700,Emergency Room Care,17644351,Fraser Health Authority,17645045,Emergency Department Services,Provides 24-hour emergency services that address urgent care needs for individuals who walk into the department or are transported there via ground or air ambulance service.,17645053,17644357,6044612022,www.fraserhealth.ca/patients-and-visitors/when-to-use-emergency/,,N,,24-Jul,475 Guildford Way,Port Moody,BC,V3H 3W9,49.283374,-122.823597,http://www.healthlinkbc.ca/find/resource.asp?First=1&org=53965&agencynum=17645045&SiteResourceAgencyNum=17644357
LD-1700,Emergency Room Care,17644351,Fraser Health Authority,17645045,Emergency Department Services,Provides 24-hour emergency services that address urgent care needs for individuals who walk into the department or are transported there via ground or air ambulance service.,17645049,17644442,6048695656,www.fraserhealth.ca/patients-and-visitors/when-to-use-emergency/,,Y,English and Translations services are available through FH resources,Open 24/7,1275 7th Avenue,Hope,BC,V0X 1L4,49.376899,-121.424345,http://www.healthlinkbc.ca/find/resource.asp?First=1&org=53965&agencynum=17645045&SiteResourceAgencyNum=17644442
LD-1700,Emergency Room Care,17644351,Fraser Health Authority,17645045,Emergency Department Services,Provides 24-hour emergency services that address urgent care needs for individuals who walk into the department or are transported there via ground or air ambulance service.,17645050,17644429,6045344121,www.fraserhealth.ca/patients-and-visitors/when-to-use-emergency/,,Y,,,22051 Fraser Highway,Langley,BC,V3A 4H4,49.093175,-122.613957,http://www.healthlinkbc.ca/find/resource.asp?First=1&org=53965&agencynum=17645045&SiteResourceAgencyNum=17644429
LD-1700,Emergency Room Care,17644351,Fraser Health Authority,17645045,Emergency Department Services,Provides 24-hour emergency services that address urgent care needs for individuals who walk into the department or are transported there via ground or air ambulance service.,17645055,17644460,6048266261,www.fraserhealth.ca/patients-and-visitors/when-to-use-emergency/,,Y,,,7324 Hurd Street,Mission,BC,V2V 3H5,49.135186,-122.331733,http://www.healthlinkbc.ca/find/resource.asp?First=1&org=53965&agencynum=17645045&SiteResourceAgencyNum=17644460
LD-1700,Emergency Room Care,17644351,Fraser Health Authority,17645045,Emergency Department Services,Provides 24-hour emergency services that address urgent care needs for individuals who walk into the department or are transported there via ground or air ambulance service.,17645056,17644418,6045315512,www.fraserhealth.ca/patients-and-visitors/when-to-use-emergency/,,N,,,15521 Russell Avenue,White Rock,BC,V4B 2R4,49.029793,-122.793632,http://www.healthlinkbc.ca/find/resource.asp?First=1&org=53965&agencynum=17645045&SiteResourceAgencyNum=17644418
LD-1700,Emergency Room Care,17648936,Vancouver Coastal Health,17648964,Emergency Health Services - North Shore,"Provides emergency health care and trauma services to residents of the North Shore, Powell River, Sechelt, Sea to Sky and the Bella Bella/Bella Coola. Services are prioritized based on the severity of a patient's condition upon arrival.",17648967,17648966,2509572314,www.vch.ca,feedback@vch.ca,Y,Interpreter available for other languages.,,88 Waglisla Street,Bella Bella,BC,V0T 1Z0,52.160187,-128.143874,http://www.healthlinkbc.ca/find/resource.asp?First=1&org=53965&agencynum=17648964&SiteResourceAgencyNum=17648966
LD-1700,Emergency Room Care,17648936,Vancouver Coastal Health,17649871,Emergency Health Services - Powell River,Provides 24 hour emergency health care and trauma services to all people living in the Powell River region. Services are prioritized based on the severity of a patient's condition upon arrival.,17649872,17648993,6044853211,http://www.vch.ca/402/7678/?site_id=130,feedback@vch.ca,Y,English.,24-Jul,5000 Joyce Avenue,Powell River,BC,V8A 5R3,49.851072,-124.520727,http://www.healthlinkbc.ca/find/resource.asp?First=1&org=53965&agencynum=17649871&SiteResourceAgencyNum=17648993
LD-1700,Emergency Room Care,17652139,Northern Health Authority,17653135,Emergency Room Care,"Provides 24-hour emergency health care and trauma services in many hospital sites. Operating hours may vary in rural communities that provide emergency care; individuals are encouraged to call ahead to confirm services will be available upon their arrival. Services address urgent care needs for individuals who walk into the department or are transported by ground or air ambulance, and are prioritized based on the severity of a patient's condition upon arrival.",17653143,17652667,2506922400,www.northernhealth.ca,hello@northernhealth.ca,N,,24-Jul,741 Centre Street,Burns Lake,BC,V0J 1E0,54.235568,-125.760016,http://www.healthlinkbc.ca/find/resource.asp?First=1&org=53965&agencynum=17653135&SiteResourceAgencyNum=17652667
LD-1700,Emergency Room Care,17652139,Northern Health Authority,17653135,Emergency Room Care,"Provides 24-hour emergency health care and trauma services in many hospital sites. Operating hours may vary in rural communities that provide emergency care; individuals are encouraged to call ahead to confirm services will be available upon their arrival. Services address urgent care needs for individuals who walk into the department or are transported by ground or air ambulance, and are prioritized based on the severity of a patient's condition upon arrival.",17653151,17652365,2509973263,www.northernhealth.ca,hello@northernhealth.ca,N,,24-Jul,45 Centennial Drive,Mackenzie,BC,V0J 2C0,55.33812,-123.101288,http://www.healthlinkbc.ca/find/resource.asp?First=1&org=53965&agencynum=17653135&SiteResourceAgencyNum=17652365
LD-1700,Emergency Room Care,17644351,Fraser Health Authority,17645045,Emergency Department Services,Provides 24-hour emergency services that address urgent care needs for individuals who walk into the department or are transported there via ground or air ambulance service.,17645051,17644363,6044634111,www.fraserhealth.ca/patients-and-visitors/when-to-use-emergency/,,N,,,11666 Laity Street,Maple Ridge,BC,V2X 7G5,49.214787,-122.631951,http://www.healthlinkbc.ca/find/resource.asp?First=1&org=53965&agencynum=17645045&SiteResourceAgencyNum=17644363
LD-1700,Emergency Room Care,17644351,Fraser Health Authority,17645045,Emergency Department Services,Provides 24-hour emergency services that address urgent care needs for individuals who walk into the department or are transported there via ground or air ambulance service.,17645052,17644420,6045204253,www.fraserhealth.ca/patients-and-visitors/when-to-use-emergency/,,N,,,330 East Columbia Street,New Westminster,BC,V3L 3W7,49.22679,-122.892844,http://www.healthlinkbc.ca/find/resource.asp?First=1&org=53965&agencynum=17645045&SiteResourceAgencyNum=17644420
LD-1700,Emergency Room Care,17644351,Fraser Health Authority,17645045,Emergency Department Services,Provides 24-hour emergency services that address urgent care needs for individuals who walk into the department or are transported there via ground or air ambulance service.,17645047,17644365,6045812211,www.fraserhealth.ca/patients-and-visitors/when-to-use-emergency/,,N,All languages provided via provincial interpretation line.,24 hour service,13750 96 Avenue,Surrey,BC,V3V 1Z2,49.177003,-122.842316,http://www.healthlinkbc.ca/find/resource.asp?First=1&org=53965&agencynum=17645045&SiteResourceAgencyNum=17644365
LD-1700,Emergency Room Care,17648936,Vancouver Coastal Health,17650208,Emergency Health Services - Bella Coola,Provides basic emergency health care services to people living in the Bella Coola region. Services are prioritized based on the severity of a patient's condition upon arrival.,17650209,17649124,2507995311,www.vch.ca,feedback@vch.ca,N,English,24-Jul,1025 Elcho Street,Bella Coola,BC,V0T 1C0,52.372895,-126.762576,http://www.healthlinkbc.ca/find/resource.asp?First=1&org=53965&agencynum=17650208&SiteResourceAgencyNum=17649124
LD-1700,Emergency Room Care,17648936,Vancouver Coastal Health,17648964,Emergency Health Services - North Shore,"Provides emergency health care and trauma services to residents of the North Shore, Powell River, Sechelt, Sea to Sky and the Bella Bella/Bella Coola. Services are prioritized based on the severity of a patient's condition upon arrival.",17648965,17648961,6049883131,www.vch.ca,feedback@vch.ca,Y,Interpreter available for other languages.,24-Jul,231 15th Street E,North Vancouver,BC,V7L 2L7,49.320214,-123.068318,http://www.healthlinkbc.ca/find/resource.asp?First=1&org=53965&agencynum=17648964&SiteResourceAgencyNum=17648961
LD-1700,Emergency Room Care,17654593,Providence Health Care,17654692,Emergency Health Services - Providence,"Provides emergency health care to residents of Vancouver. Services are prioritized based on the severity of a patient's condition upon arrival. In addition to emergency, orthopedic, and trauma care, select Providence emergency care sites offer specialized services. St. Paul's Hospital Emergency Care specializes in complex and multiple diagnosis, surgery, internal medicine, specialty medicine including neurology and stroke management, gastroenterology, respiratory, renal, obstetrical, urological, ophthalmological, head and neck, plastic surgery, mental health and cardiovascular care. Although there are no pediatric admissions, both St. Paul's Hospital and Mount St. Joseph's Hospital emergency staff have expertise to treat pediatric outpatient problems. Mount St. Joseph's Hospital sees patients with medical, surgical, and orthopedic problems. Children are seen at this site although there are no hospital admissions for pediatric aged patients.",17654694,17654602,6048741141,http://www.providencehealthcare.org/hospitals-residences/mount-saint-joseph-hospital/emergency-services,communications@providencehealth.bc.ca,Y,English. Translation services available.,Mon 08:30 - 20:00; Tue 08:30 - 20:00; Wed 08:30 - 20:00; Thu 08:30 - 20:00; Fri 08:30 - 20:00; Sat 08:30 - 20:00; Sun 08:30 - 20:00;,3080 Prince Edward Street,Vancouver,BC,V5T 3N4,49.257699,-123.096358,http://www.healthlinkbc.ca/find/resource.asp?First=1&org=53965&agencynum=17654692&SiteResourceAgencyNum=17654602
LD-1700,Emergency Room Care,17654593,Providence Health Care,17654692,Emergency Health Services - Providence,"Provides emergency health care to residents of Vancouver. Services are prioritized based on the severity of a patient's condition upon arrival. In addition to emergency, orthopedic, and trauma care, select Providence emergency care sites offer specialized services. St. Paul's Hospital Emergency Care specializes in complex and multiple diagnosis, surgery, internal medicine, specialty medicine including neurology and stroke management, gastroenterology, respiratory, renal, obstetrical, urological, ophthalmological, head and neck, plastic surgery, mental health and cardiovascular care. Although there are no pediatric admissions, both St. Paul's Hospital and Mount St. Joseph's Hospital emergency staff have expertise to treat pediatric outpatient problems. Mount St. Joseph's Hospital sees patients with medical, surgical, and orthopedic problems. Children are seen at this site although there are no hospital admissions for pediatric aged patients.",17654693,17654607,6046822344,www.providencehealthcare.org,communications@providencehealth.bc.ca,Y,English. Translation services available.,24-Jul,1081 Burrard Street,Vancouver,BC,V6Z 1Y6,49.280419,-123.127141,http://www.healthlinkbc.ca/find/resource.asp?First=1&org=53965&agencynum=17654692&SiteResourceAgencyNum=17654607
LD-1700,Emergency Room Care,17648936,Vancouver Coastal Health,17649851,Emergency Health Services - Richmond,Provides 24 hour emergency health care services to all people living in the Richmond area. Services are prioritized based on the severity of a patient's condition upon arrival.,17649852,17648995,6042789711,,feedback@vch.ca,Y,English. Translation services available.,24-Jul,7000 Westminster Highway,Richmond,BC,V6X 1A2,49.170162,-123.147547,http://www.healthlinkbc.ca/find/resource.asp?First=1&org=53965&agencynum=17649851&SiteResourceAgencyNum=17648995
LD-1700,Emergency Room Care,17648936,Vancouver Coastal Health,17649259,Emergency Health Services - Sea to Sky,Provides basic emergency health care services to people in the Sea-to-Sky region. Services are prioritized based on the severity of a patient's condition upon arrival.,17649263,17649176,6048946939,www.vch.ca,feedback@vancoastalhealth.ca,N,English,"Mon - Sun, 9 a.m. - 9 p.m.; On call staff may be available for after hours services.",1403 Portage Road,Pemberton,BC,V0N 2L0,50.321081,-122.804414,http://www.healthlinkbc.ca/find/resource.asp?First=1&org=53965&agencynum=17649259&SiteResourceAgencyNum=17649176
LD-1700,Emergency Room Care,17648936,Vancouver Coastal Health,17649259,Emergency Health Services - Sea to Sky,Provides basic emergency health care services to people in the Sea-to-Sky region. Services are prioritized based on the severity of a patient's condition upon arrival.,17649261,17649260,6048925211,feedback@vch.ca,feedback@vancoastalhealth.ca,Y,English,24-Jul,38140 Behrner Drive,Squamish,BC,V8B 0J3,49.700092,-123.140086,http://www.healthlinkbc.ca/find/resource.asp?First=1&org=53965&agencynum=17649259&SiteResourceAgencyNum=17649260
LD-1700,Emergency Room Care,17648936,Vancouver Coastal Health,17649259,Emergency Health Services - Sea to Sky,Provides basic emergency health care services to people in the Sea-to-Sky region. Services are prioritized based on the severity of a patient's condition upon arrival.,17649262,17649180,6049324911,www.vch.ca,feedback@vch.ca,Y,English,"Mon - Sun, 8 a.m. - 10 p.m.; On call staff may be available for after hours services. Physicians and nurses are on-call 24-7.",4380 Lorimer Road,Whistler,BC,V0N 1B4,50.120463,-122.954906,http://www.healthlinkbc.ca/find/resource.asp?First=1&org=53965&agencynum=17649259&SiteResourceAgencyNum=17649180
LD-1700,Emergency Room Care,17648936,Vancouver Coastal Health,17650141,Emergency Health Services - Sunshine Coast,Provides emergency health care and trauma services to residents of the Sunshine Coast. Services are prioritized based on the severity of a patient's condition upon arrival.,17650142,17648998,6048852224,www.vch.ca,feedback@vch.ca,Y,English,24-Jul,5544 Sunshine Coast Highway,Sechelt,BC,V0N 3A0,49.475307,-123.749159,http://www.healthlinkbc.ca/find/resource.asp?First=1&org=53965&agencynum=17650141&SiteResourceAgencyNum=17648998
LD-1700,Emergency Room Care,17648936,Vancouver Coastal Health,17649905,Emergency Health Services - Vancouver,"Provides full range of basic and highly specialized emergency health care and trauma services to all of British Columbia. Provincial referral centre for quaternary emergency services including: spinal, neurosurgery, severe trauma, and severe burns. Houses the provincial burns centre. Services are prioritized based on the severity of a patient's condition upon arrival.",17649906,17649540,6048754111,http://www.vch.ca/,feedback@vch.ca,Y,English. Translators available.,24-Jul,920 10th Avenue West,Vancouver,BC,V5Z 1M9,49.262412,-123.124725,http://www.healthlinkbc.ca/find/resource.asp?First=1&org=53965&agencynum=17649905&SiteResourceAgencyNum=17649540
LD-1700,Emergency Room Care,17652139,Northern Health Authority,17653135,Emergency Room Care,"Provides 24-hour emergency health care and trauma services in many hospital sites. Operating hours may vary in rural communities that provide emergency care; individuals are encouraged to call ahead to confirm services will be available upon their arrival. Services address urgent care needs for individuals who walk into the department or are transported by ground or air ambulance, and are prioritized based on the severity of a patient's condition upon arrival.",17653150,17652305,2506517677,www.northernhealth.ca,hello@northernhealth.ca,N,,Mon 08:30 - 16:30; Tue 08:30 - 16:30; Wed 08:30 - 16:30; Thu 08:30 - 16:30; Fri 08:30 - 16:30; On-call nurse is available for after-hours emergencies,164 3rd Street,Atlin,BC,V0W 1A0,59.571723,-133.68988,http://www.healthlinkbc.ca/find/resource.asp?First=1&org=53965&agencynum=17653135&SiteResourceAgencyNum=17652305
LD-1700,Emergency Room Care,17652139,Northern Health Authority,17653135,Emergency Room Care,"Provides 24-hour emergency health care and trauma services in many hospital sites. Operating hours may vary in rural communities that provide emergency care; individuals are encouraged to call ahead to confirm services will be available upon their arrival. Services address urgent care needs for individuals who walk into the department or are transported by ground or air ambulance, and are prioritized based on the severity of a patient's condition upon arrival.",17653149,17652292,2508472611,www.northernhealth.ca,hello@northernhealth.ca,N,,24-Jul,3950 8th Avenue,Smithers,BC,V0J 2N0,54.784976,-127.163822,http://www.healthlinkbc.ca/find/resource.asp?First=1&org=53965&agencynum=17653135&SiteResourceAgencyNum=17652292
LD-1700,Emergency Room Care,17652139,Northern Health Authority,17653135,Emergency Room Care,"Provides 24-hour emergency health care and trauma services in many hospital sites. Operating hours may vary in rural communities that provide emergency care; individuals are encouraged to call ahead to confirm services will be available upon their arrival. Services address urgent care needs for individuals who walk into the department or are transported by ground or air ambulance, and are prioritized based on the severity of a patient's condition upon arrival.",17653159,17652362,2507882236,www.northernhealth.ca,hello@northernhealth.ca,N,,24-Jul,5500 Hospital Road,Chetwynd,BC,V0C 1J0,55.695973,-121.64632,http://www.healthlinkbc.ca/find/resource.asp?First=1&org=53965&agencynum=17653135&SiteResourceAgencyNum=17652362
LD-1700,Emergency Room Care,17652139,Northern Health Authority,17653135,Emergency Room Care,"Provides 24-hour emergency health care and trauma services in many hospital sites. Operating hours may vary in rural communities that provide emergency care; individuals are encouraged to call ahead to confirm services will be available upon their arrival. Services address urgent care needs for individuals who walk into the department or are transported by ground or air ambulance, and are prioritized based on the severity of a patient's condition upon arrival.",17653153,17652143,2507828501,www.northernhealth.ca,hello@northernhealth.ca,N,,24-Jul,11100 13th Street,Dawson Creek,BC,V1G 3W8,55.749057,-120.237333,http://www.healthlinkbc.ca/find/resource.asp?First=1&org=53965&agencynum=17653135&SiteResourceAgencyNum=17652143
LD-1700,Emergency Room Care,17652139,Northern Health Authority,17653135,Emergency Room Care,"Provides 24-hour emergency health care and trauma services in many hospital sites. Operating hours may vary in rural communities that provide emergency care; individuals are encouraged to call ahead to confirm services will be available upon their arrival. Services address urgent care needs for individuals who walk into the department or are transported by ground or air ambulance, and are prioritized based on the severity of a patient's condition upon arrival.",17653136,17652353,2507748100,www.northernhealth.ca,hello@northernhealth.ca,N,,24-Jul,5315 Liard Street,Fort Nelson,BC,V0C 1R0,58.809101,-122.703101,http://www.healthlinkbc.ca/find/resource.asp?First=1&org=53965&agencynum=17653135&SiteResourceAgencyNum=17652353
LD-1700,Emergency Room Care,17652139,Northern Health Authority,17653135,Emergency Room Care,"Provides 24-hour emergency health care and trauma services in many hospital sites. Operating hours may vary in rural communities that provide emergency care; individuals are encouraged to call ahead to confirm services will be available upon their arrival. Services address urgent care needs for individuals who walk into the department or are transported by ground or air ambulance, and are prioritized based on the severity of a patient's condition upon arrival.",17653154,17652606,2502625200,www.northernhealth.ca,hello@northernhealth.ca,N,,24-Jul,8407 112th Avenue,Fort St John,BC,V1J 0J5,56.256892,-120.817122,http://www.healthlinkbc.ca/find/resource.asp?First=1&org=53965&agencynum=17653135&SiteResourceAgencyNum=17652606
LD-1700,Emergency Room Care,17652139,Northern Health Authority,17653135,Emergency Room Care,"Provides 24-hour emergency health care and trauma services in many hospital sites. Operating hours may vary in rural communities that provide emergency care; individuals are encouraged to call ahead to confirm services will be available upon their arrival. Services address urgent care needs for individuals who walk into the department or are transported by ground or air ambulance, and are prioritized based on the severity of a patient's condition upon arrival.",17653141,17652193,2506997742,www.northernhealth.ca,hello@northernhealth.ca,N,,Mon 09:00 - 17:00; Tue 09:00 - 17:00; Wed 09:00 - 17:00; Thu 09:00 - 17:00; Fri 09:00 - 17:00;,130 Chowsunket Street,Fraser Lake,BC,V0J 1S0,54.059109,-124.849774,http://www.healthlinkbc.ca/find/resource.asp?First=1&org=53965&agencynum=17653135&SiteResourceAgencyNum=17652193
LD-1700,Emergency Room Care,17652139,Northern Health Authority,17653135,Emergency Room Care,"Provides 24-hour emergency health care and trauma services in many hospital sites. Operating hours may vary in rural communities that provide emergency care; individuals are encouraged to call ahead to confirm services will be available upon their arrival. Services address urgent care needs for individuals who walk into the department or are transported by ground or air ambulance, and are prioritized based on the severity of a patient's condition upon arrival.",17653156,17652141,2509855600,www.northernhealth.ca,hello@northernhealth.ca,N,,24-Jul,543 Front Street,Quesnel,BC,V2J 2K7,52.981739,-122.498817,http://www.healthlinkbc.ca/find/resource.asp?First=1&org=53965&agencynum=17653135&SiteResourceAgencyNum=17652141
LD-1700,Emergency Room Care,17652139,Northern Health Authority,17653135,Emergency Room Care,"Provides 24-hour emergency health care and trauma services in many hospital sites. Operating hours may vary in rural communities that provide emergency care; individuals are encouraged to call ahead to confirm services will be available upon their arrival. Services address urgent care needs for individuals who walk into the department or are transported by ground or air ambulance, and are prioritized based on the severity of a patient's condition upon arrival.",17653158,17652178,2507839991,www.northernhealth.ca,hello@northernhealth.ca,N,,"Service only available when doctor is on-site, please call for availability.",10309 Kyllo Street,Hudsons Hope,BC,V0C 1V0,56.026604,-121.914866,http://www.healthlinkbc.ca/find/resource.asp?First=1&org=53965&agencynum=17653135&SiteResourceAgencyNum=17652178
LD-1700,Emergency Room Care,17652139,Northern Health Authority,17653135,Emergency Room Care,"Provides 24-hour emergency health care and trauma services in many hospital sites. Operating hours may vary in rural communities that provide emergency care; individuals are encouraged to call ahead to confirm services will be available upon their arrival. Services address urgent care needs for individuals who walk into the department or are transported by ground or air ambulance, and are prioritized based on the severity of a patient's condition upon arrival.",17653144,17652147,2506322121,www.northernhealth.ca,hello@northernhealth.ca,N,,24-Jul,920 Lahakas Boulevard S,Kitimat,BC,V8C 2S3,54.050317,-128.647792,http://www.healthlinkbc.ca/find/resource.asp?First=1&org=53965&agencynum=17653135&SiteResourceAgencyNum=17652147
LD-1700,Emergency Room Care,17652139,Northern Health Authority,17653135,Emergency Room Care,"Provides 24-hour emergency health care and trauma services in many hospital sites. Operating hours may vary in rural communities that provide emergency care; individuals are encouraged to call ahead to confirm services will be available upon their arrival. Services address urgent care needs for individuals who walk into the department or are transported by ground or air ambulance, and are prioritized based on the severity of a patient's condition upon arrival.",17653152,17652295,2505692251,www.northernhealth.ca,hello@northernhealth.ca,N,,24-Jul,1136 5th Avenue,Mcbride,BC,V0J 2E0,53.300909,-120.16308,http://www.healthlinkbc.ca/find/resource.asp?First=1&org=53965&agencynum=17653135&SiteResourceAgencyNum=17652295
LD-1700,Emergency Room Care,17652139,Northern Health Authority,17653135,Emergency Room Care,"Provides 24-hour emergency health care and trauma services in many hospital sites. Operating hours may vary in rural communities that provide emergency care; individuals are encouraged to call ahead to confirm services will be available upon their arrival. Services address urgent care needs for individuals who walk into the department or are transported by ground or air ambulance, and are prioritized based on the severity of a patient's condition upon arrival.",17653145,17652898,2506352211,www.northernhealth.ca,hello@northernhealth.ca,N,,24-Jul,4720 Haugland Avenue,Terrace,BC,V8G 2W7,54.510843,-128.596516,http://www.healthlinkbc.ca/find/resource.asp?First=1&org=53965&agencynum=17653135&SiteResourceAgencyNum=17652898
LD-1700,Emergency Room Care,17652139,Northern Health Authority,17653135,Emergency Room Care,"Provides 24-hour emergency health care and trauma services in many hospital sites. Operating hours may vary in rural communities that provide emergency care; individuals are encouraged to call ahead to confirm services will be available upon their arrival. Services address urgent care needs for individuals who walk into the department or are transported by ground or air ambulance, and are prioritized based on the severity of a patient's condition upon arrival.",17653147,17652267,2506264700,www.northernhealth.ca,hello@northernhealth.ca,N,,24-7 staffed by Registered Nurses. Physician is on-call after-hours,2520 Harrison Avenue,Masset,BC,V0T 1M0,54.012317,-132.151708,http://www.healthlinkbc.ca/find/resource.asp?First=1&org=53965&agencynum=17653135&SiteResourceAgencyNum=17652267
LD-1700,Emergency Room Care,17652139,Northern Health Authority,17653135,Emergency Room Care,"Provides 24-hour emergency health care and trauma services in many hospital sites. Operating hours may vary in rural communities that provide emergency care; individuals are encouraged to call ahead to confirm services will be available upon their arrival. Services address urgent care needs for individuals who walk into the department or are transported by ground or air ambulance, and are prioritized based on the severity of a patient's condition upon arrival.",17653160,17652308,2506242171,www.northernhealth.ca,hello@northernhealth.ca,N,,24-Jul,1305 Summit Avenue,Prince Rupert,BC,V8J 2A6,54.304265,-130.332179,http://www.healthlinkbc.ca/find/resource.asp?First=1&org=53965&agencynum=17653135&SiteResourceAgencyNum=17652308
LD-1700,Emergency Room Care,17652139,Northern Health Authority,17653135,Emergency Room Care,"Provides 24-hour emergency health care and trauma services in many hospital sites. Operating hours may vary in rural communities that provide emergency care; individuals are encouraged to call ahead to confirm services will be available upon their arrival. Services address urgent care needs for individuals who walk into the department or are transported by ground or air ambulance, and are prioritized based on the severity of a patient's condition upon arrival.",17653148,17652557,2505594300,www.northernhealth.ca,hello@northernhealth.ca,N,,24-Jul,3209 Oceanview Drive,Queen Charlotte,BC,V0T 1S0,53.254681,-132.070845,http://www.healthlinkbc.ca/find/resource.asp?First=1&org=53965&agencynum=17653135&SiteResourceAgencyNum=17652557
LD-1700,Emergency Room Care,17652139,Northern Health Authority,17653135,Emergency Room Care,"Provides 24-hour emergency health care and trauma services in many hospital sites. Operating hours may vary in rural communities that provide emergency care; individuals are encouraged to call ahead to confirm services will be available upon their arrival. Services address urgent care needs for individuals who walk into the department or are transported by ground or air ambulance, and are prioritized based on the severity of a patient's condition upon arrival.",17653155,17652672,2505672211,www.northernhealth.ca,hello@northernhealth.ca,N,,24-Jul,3255 Hospital Road,Vanderhoof,BC,V0J 3A2,54.02876,-124.008821,http://www.healthlinkbc.ca/find/resource.asp?First=1&org=53965&agencynum=17653135&SiteResourceAgencyNum=17652672
LD-1700,Emergency Room Care,17652139,Northern Health Authority,17653135,Emergency Room Care,"Provides 24-hour emergency health care and trauma services in many hospital sites. Operating hours may vary in rural communities that provide emergency care; individuals are encouraged to call ahead to confirm services will be available upon their arrival. Services address urgent care needs for individuals who walk into the department or are transported by ground or air ambulance, and are prioritized based on the severity of a patient's condition upon arrival.",17653139,17652183,2506362221,www.northernhealth.ca,hello@northernhealth.ca,N,,24-Jul,904 Brightwell Street,Stewart,BC,V0T 1W0,55.939636,-129.990761,http://www.healthlinkbc.ca/find/resource.asp?First=1&org=53965&agencynum=17653135&SiteResourceAgencyNum=17652183
LD-1700,Emergency Room Care,17652139,Northern Health Authority,17653135,Emergency Room Care,"Provides 24-hour emergency health care and trauma services in many hospital sites. Operating hours may vary in rural communities that provide emergency care; individuals are encouraged to call ahead to confirm services will be available upon their arrival. Services address urgent care needs for individuals who walk into the department or are transported by ground or air ambulance, and are prioritized based on the severity of a patient's condition upon arrival.",17653138,17652189,2507714444,www.northernhealth.ca,hello@northernhealth.ca,N,,"Mon - Fri, 08:30  - noon; 13:00 - 16:30; Scheduled nurse and doctor on call after hours",7171 37 Highway,Dease Lake,BC,V0C 1L0,58.441804,-129.992101,http://www.healthlinkbc.ca/find/resource.asp?First=1&org=53965&agencynum=17653135&SiteResourceAgencyNum=17652189
LD-1700,Emergency Room Care,17652139,Northern Health Authority,17653135,Emergency Room Care,"Provides 24-hour emergency health care and trauma services in many hospital sites. Operating hours may vary in rural communities that provide emergency care; individuals are encouraged to call ahead to confirm services will be available upon their arrival. Services address urgent care needs for individuals who walk into the department or are transported by ground or air ambulance, and are prioritized based on the severity of a patient's condition upon arrival.",17653140,17652340,2509968201,www.northernhealth.ca,hello@northernhealth.ca,N,,24-Jul,600 Stuart Drive East,Fort St James,BC,V0J 1P0,54.442987,-124.245474,http://www.healthlinkbc.ca/find/resource.asp?First=1&org=53965&agencynum=17653135&SiteResourceAgencyNum=17652340
LD-1700,Emergency Room Care,17652139,Northern Health Authority,17653135,Emergency Room Care,"Provides 24-hour emergency health care and trauma services in many hospital sites. Operating hours may vary in rural communities that provide emergency care; individuals are encouraged to call ahead to confirm services will be available upon their arrival. Services address urgent care needs for individuals who walk into the department or are transported by ground or air ambulance, and are prioritized based on the severity of a patient's condition upon arrival.",17653146,17652145,2505652000,www.northernhealth.ca,hello@northernhealth.ca,N,,24-Jul,1475 Edmonton Street,Prince George,BC,V2M 1S2,53.911251,-122.763153,http://www.healthlinkbc.ca/find/resource.asp?First=1&org=53965&agencynum=17653135&SiteResourceAgencyNum=17652145
LD-1700,Emergency Room Care,17652139,Northern Health Authority,17653135,Emergency Room Care,"Provides 24-hour emergency health care and trauma services in many hospital sites. Operating hours may vary in rural communities that provide emergency care; individuals are encouraged to call ahead to confirm services will be available upon their arrival. Services address urgent care needs for individuals who walk into the department or are transported by ground or air ambulance, and are prioritized based on the severity of a patient's condition upon arrival.",17653137,17652162,2502425271,www.northernhealth.ca,hello@northernhealth.ca,N,,Mon 08:30 - 17:00; Tue 08:30 - 17:00; Wed 08:30 - 17:00; Thu 08:30 - 17:00; Fri 08:30 - 17:00; Nurse and doctor on-call after hours,220 Front Street,Tumbler Ridge,BC,V0C 2W0,55.125373,-121.00198,http://www.healthlinkbc.ca/find/resource.asp?First=1&org=53965&agencynum=17653135&SiteResourceAgencyNum=17652162
LD-1700,Emergency Room Care,17652139,Northern Health Authority,17653135,Emergency Room Care,"Provides 24-hour emergency health care and trauma services in many hospital sites. Operating hours may vary in rural communities that provide emergency care; individuals are encouraged to call ahead to confirm services will be available upon their arrival. Services address urgent care needs for individuals who walk into the department or are transported by ground or air ambulance, and are prioritized based on the severity of a patient's condition upon arrival.",17653142,17652205,2505669138,www.northernhealth.ca,hello@northernhealth.ca,N,,Mon 08:40 - 16:30; Tue 08:40 - 16:30; Wed 08:40 - 16:30; Thu 08:40 - 16:30; Fri 08:40 - 16:30; Nurse and doctor on call for after-hours emergency,1445 5th Avenue,Valemount,BC,V0E 2Z0,52.83206,-119.270254,http://www.healthlinkbc.ca/find/resource.asp?First=1&org=53965&agencynum=17653135&SiteResourceAgencyNum=17652205
LD-1700,Emergency Room Care,17652139,Northern Health Authority,17653135,Emergency Room Care,"Provides 24-hour emergency health care and trauma services in many hospital sites. Operating hours may vary in rural communities that provide emergency care; individuals are encouraged to call ahead to confirm services will be available upon their arrival. Services address urgent care needs for individuals who walk into the department or are transported by ground or air ambulance, and are prioritized based on the severity of a patient's condition upon arrival.",17653157,17652355,2508425211,www.northernhealth.ca,hello@northernhealth.ca,N,,24-Jul,2510 62 Highway,Hazelton,BC,V0J 1Y0,55.259655,-127.651295,http://www.healthlinkbc.ca/find/resource.asp?First=1&org=53965&agencynum=17653135&SiteResourceAgencyNum=17652355
LD-1700,Emergency Room Care,17646543,Interior Health Authority,17647094,Emergency Services Network,Provides 24-hour emergency health care and trauma services in many hospital sites. Operating hours may vary in rural communities that provide emergency care; individuals are encouraged to call ahead to confirm services will be available upon their arrival. Services address urgent care needs for individuals who walk into the department or are transported by ground or air ambulance. Services are prioritized based on the severity of the patient's condition upon arrival.,17647116,17646849,2503957600,http://www.interiorhealth.ca/FindUs/_layouts/FindUs/info.aspx?type=Service&loc=&svc=Emergency Health Services&ploc=,,N,,24-Jul,555 Cedar Avenue South,100 Mile House,BC,V0K 2E0,51.638105,-121.293555,http://www.healthlinkbc.ca/find/resource.asp?First=1&org=53965&agencynum=17647094&SiteResourceAgencyNum=17646849
LD-1700,Emergency Room Care,17646543,Interior Health Authority,17647094,Emergency Services Network,Provides 24-hour emergency health care and trauma services in many hospital sites. Operating hours may vary in rural communities that provide emergency care; individuals are encouraged to call ahead to confirm services will be available upon their arrival. Services address urgent care needs for individuals who walk into the department or are transported by ground or air ambulance. Services are prioritized based on the severity of the patient's condition upon arrival.,17647132,17646567,2504993000,http://www.interiorhealth.ca/FindUs/_layouts/FindUs/info.aspx?type=Service&loc=&svc=Emergency Health Services&ploc=,,N,,"Mon - Sat, 8 a.m. - 7 p.m.; Physician on-call all other hours.",700 3rd Street,Keremeos,BC,V0X 1N3,49.20514,-119.831731,http://www.healthlinkbc.ca/find/resource.asp?First=1&org=53965&agencynum=17647094&SiteResourceAgencyNum=17646567
LD-1700,Emergency Room Care,17646543,Interior Health Authority,17647094,Emergency Services Network,Provides 24-hour emergency health care and trauma services in many hospital sites. Operating hours may vary in rural communities that provide emergency care; individuals are encouraged to call ahead to confirm services will be available upon their arrival. Services address urgent care needs for individuals who walk into the department or are transported by ground or air ambulance. Services are prioritized based on the severity of the patient's condition upon arrival.,17647121,17646772,2504256212,http://www.interiorhealth.ca/FindUs/_layouts/FindUs/info.aspx?type=Service&loc=&svc=Emergency Health Services&ploc=,,N,,"Mon - Sun, 8 a.m. - 7 p.m.",570 Pine Avenue,Sparwood,BC,V0B 2G0,49.72153,-114.893626,http://www.healthlinkbc.ca/find/resource.asp?First=1&org=53965&agencynum=17647094&SiteResourceAgencyNum=17646772
LD-1700,Emergency Room Care,17646543,Interior Health Authority,17647094,Emergency Services Network,Provides 24-hour emergency health care and trauma services in many hospital sites. Operating hours may vary in rural communities that provide emergency care; individuals are encouraged to call ahead to confirm services will be available upon their arrival. Services address urgent care needs for individuals who walk into the department or are transported by ground or air ambulance. Services are prioritized based on the severity of the patient's condition upon arrival.,17647120,17647058,2504552221,http://www.interiorhealth.ca/FindUs/_layouts/FindUs/info.aspx?type=Service&loc=&svc=Emergency Health Services&ploc=,,N,,"Mon - Sun, 9 a.m. - 9 p.m.; Please call to verify emergency service hours.",575A Main Street,Lytton,BC,V0K 1Z0,50.234222,-121.580994,http://www.healthlinkbc.ca/find/resource.asp?First=1&org=53965&agencynum=17647094&SiteResourceAgencyNum=17647058
LD-1700,Emergency Room Care,17653863,St. Joseph's General Hospital,17653871,Emergency Services,Provides emergency care for incoming patients on a priority basis. Designed primarily for patients requiring immediate treatment.,17653872,17653865,2503392242,http://www.sjghcomox.ca/emergency.php,,Y,English,24-Jul,2137 Comox Avenue,Comox,BC,V9M 1P2,49.675587,-124.940821,http://www.healthlinkbc.ca/find/resource.asp?First=1&org=53965&agencynum=17653871&SiteResourceAgencyNum=17653865
LD-1700,Emergency Room Care,17650682,Island Health,17651530,Emergency Services,"Provides in-hospital emergency care for patients who have acute, life-threatening injuries, or severe illnesses.",17651546,17650761,2509346322,http://www.viha.ca/locations/tahsis_health_centre.htm,info@viha.ca,Y,,"Mon - Fri, 9 a.m. - 4:30 p.m.; Nurse available 24/7; Doctor available Tue and Thu only.",1085 Maquinna Drive,Tahsis,BC,V0P 1X0,49.913388,-126.663244,http://www.healthlinkbc.ca/find/resource.asp?First=1&org=53965&agencynum=17651530&SiteResourceAgencyNum=17650761
LD-1700,Emergency Room Care,17650682,Island Health,17651530,Emergency Services,"Provides in-hospital emergency care for patients who have acute, life-threatening injuries, or severe illnesses.",17651539,17651030,2507254010,http://www.viha.ca/locations/tofino_general_hospital.htm,info@viha.ca,N,,,261 Neill Street,Tofino,BC,V0R 2Z0,49.151557,-125.90808,http://www.healthlinkbc.ca/find/resource.asp?First=1&org=53965&agencynum=17651530&SiteResourceAgencyNum=17651030
LD-1700,Emergency Room Care,17646543,Interior Health Authority,17647094,Emergency Services Network,Provides 24-hour emergency health care and trauma services in many hospital sites. Operating hours may vary in rural communities that provide emergency care; individuals are encouraged to call ahead to confirm services will be available upon their arrival. Services address urgent care needs for individuals who walk into the department or are transported by ground or air ambulance. Services are prioritized based on the severity of the patient's condition upon arrival.,17647127,17646580,2505581200,http://www.interiorhealth.ca/FindUs/_layouts/FindUs/info.aspx?type=Service&loc=&svc=Emergency Health Services&ploc=,,N,,24-Jul,2101 32nd Street,Vernon,BC,V1T 5L2,50.256925,-119.273751,http://www.healthlinkbc.ca/find/resource.asp?First=1&org=53965&agencynum=17647094&SiteResourceAgencyNum=17646580
LD-1700,Emergency Room Care,17650682,Island Health,17651530,Emergency Services,"Provides in-hospital emergency care for patients who have acute, life-threatening injuries, or severe illnesses.",17651536,17650784,2507274212,http://www.viha.ca/locations/victoria_general_hospital.htm,info@viha.ca,N,,,1 Hospital Way,Victoria,BC,V8Z 6R5,48.466504,-123.433064,http://www.healthlinkbc.ca/find/resource.asp?First=1&org=53965&agencynum=17651530&SiteResourceAgencyNum=17650784
LD-1700,Emergency Room Care,17646543,Interior Health Authority,17647094,Emergency Services Network,Provides 24-hour emergency health care and trauma services in many hospital sites. Operating hours may vary in rural communities that provide emergency care; individuals are encouraged to call ahead to confirm services will be available upon their arrival. Services address urgent care needs for individuals who walk into the department or are transported by ground or air ambulance. Services are prioritized based on the severity of the patient's condition upon arrival.,17647123,17646627,2503532211,http://www.interiorhealth.ca/FindUs/_layouts/FindUs/info.aspx?type=Service&loc=&svc=Emergency Health Services&ploc=,,N,,"Mon - Fri, 9 a.m. - 5 p.m.; closed statuary holidays",673 A Avenue,Kaslo,BC,V0G 1M0,49.913883,-116.914089,http://www.healthlinkbc.ca/find/resource.asp?First=1&org=53965&agencynum=17647094&SiteResourceAgencyNum=17646627
LD-1700,Emergency Room Care,17646543,Interior Health Authority,17647094,Emergency Services Network,Provides 24-hour emergency health care and trauma services in many hospital sites. Operating hours may vary in rural communities that provide emergency care; individuals are encouraged to call ahead to confirm services will be available upon their arrival. Services address urgent care needs for individuals who walk into the department or are transported by ground or air ambulance. Services are prioritized based on the severity of the patient's condition upon arrival.,17647134,17646788,2504761114,http://www.interiorhealth.ca/FindUs/_layouts/FindUs/info.aspx?type=Service&loc=&svc=Emergency Health Services&ploc=,,N,,"Clinic Hours: Mon- Fri, 8:45 a.m. - 4:30 p.m.; Emergency services available during clinic hours and on-call after hours.",16452 Highway 20,Tatla Lake,BC,V0L 1V0,51.898899,-124.583244,http://www.healthlinkbc.ca/find/resource.asp?First=1&org=53965&agencynum=17647094&SiteResourceAgencyNum=17646788
LD-1700,Emergency Room Care,17643248,Nisga'a Valley Health Authority,17643277,Emergency Services,"Provides emergency health care and trauma services for members of Nisga'a First Nation as well as other bands, and non-natives living in the area. Services are prioritized based on the severity of a patient's condition upon arrival. BC Ambulance and/or Air Ambulance will be called upon when required to deliver patients to hospital emergency department.",17643278,17643250,2506335000,http://www.nisgaalisims.ca/nisgaa-valley-health-authority,jaydawson@nisgaahealth.bc.ca,Y,English,,4920 Tait Avenue,New Aiyansh,BC,V0J 1A0,55.200064,-129.077032,http://www.healthlinkbc.ca/find/resource.asp?First=1&org=53965&agencynum=17643277&SiteResourceAgencyNum=17643250
LD-1700,Emergency Room Care,17646543,Interior Health Authority,17647094,Emergency Services Network,Provides 24-hour emergency health care and trauma services in many hospital sites. Operating hours may vary in rural communities that provide emergency care; individuals are encouraged to call ahead to confirm services will be available upon their arrival. Services address urgent care needs for individuals who walk into the department or are transported by ground or air ambulance. Services are prioritized based on the severity of the patient's condition upon arrival.,21397663,17647924,2503944313,www.interiorhealth.ca/FindUs/_layouts/FindUs/info.aspx?type=Service&loc=&svc=Emergency Health Services&ploc=,,N,,Mon 08:00 - 19:00; Tue 08:00 - 19:00; Wed 08:00 - 19:00; Thu 08:00 - 19:00; Fri 08:00 - 19:00; Sat 08:00 - 19:00; Sun 08:00 - 19:00;,2592 Morton Road,Alexis Creek,BC,V0L 1A0,52.085559,-123.275914,http://www.healthlinkbc.ca/find/resource.asp?First=1&org=53965&agencynum=17647094&SiteResourceAgencyNum=17647924
LD-1700,Emergency Room Care,17646543,Interior Health Authority,17647094,Emergency Services Network,Provides 24-hour emergency health care and trauma services in many hospital sites. Operating hours may vary in rural communities that provide emergency care; individuals are encouraged to call ahead to confirm services will be available upon their arrival. Services address urgent care needs for individuals who walk into the department or are transported by ground or air ambulance. Services are prioritized based on the severity of the patient's condition upon arrival.,17647124,17646553,2502653622,http://www.interiorhealth.ca/FindUs/_layouts/FindUs/info.aspx?type=Service&loc=&svc=Emergency Health Services&ploc=,,N,,24-Jul,97 1st Avenue NE,Nakusp,BC,V0G 1R0,50.238724,-117.794638,http://www.healthlinkbc.ca/find/resource.asp?First=1&org=53965&agencynum=17647094&SiteResourceAgencyNum=17646553
LD-1700,Emergency Room Care,17646543,Interior Health Authority,17647094,Emergency Services Network,Provides 24-hour emergency health care and trauma services in many hospital sites. Operating hours may vary in rural communities that provide emergency care; individuals are encouraged to call ahead to confirm services will be available upon their arrival. Services address urgent care needs for individuals who walk into the department or are transported by ground or air ambulance. Services are prioritized based on the severity of the patient's condition upon arrival.,17647115,17646776,2504532211,www.interiorhealth.ca/FindUs/_layouts/FindUs/info.aspx?type=Service&loc=&svc=Emergency Health Services&ploc=,,Y,,Mon 06:00 - 12:00; Tue 09:00 - 12:00; Wed 09:00 - 12:00; Thu 09:00 - 12:00; Fri 18:00 - 24:00; Saturday and Sunday: open 24 hours until Monday morning.For up-to-date Emergency Department hours call 250-453-2211 (option 7),700 Ash-Cache Creek Highway,Ashcroft,BC,V0K 1A0,50.734772,-121.280163,http://www.healthlinkbc.ca/find/resource.asp?First=1&org=53965&agencynum=17647094&SiteResourceAgencyNum=17646776
LD-1700,Emergency Room Care,17646543,Interior Health Authority,17647094,Emergency Services Network,Provides 24-hour emergency health care and trauma services in many hospital sites. Operating hours may vary in rural communities that provide emergency care; individuals are encouraged to call ahead to confirm services will be available upon their arrival. Services address urgent care needs for individuals who walk into the department or are transported by ground or air ambulance. Services are prioritized based on the severity of the patient's condition upon arrival.,17647095,17646767,2506729731,http://www.interiorhealth.ca/FindUs/_layouts/FindUs/info.aspx?type=Service&loc=&svc=Emergency Health Services&ploc=,,N,,"Mon - Fri, 8:30 a.m. - 4:30 p.m.",4537 Barriere Town Road,Barriere,BC,V0E 1E0,51.180406,-120.125113,http://www.healthlinkbc.ca/find/resource.asp?First=1&org=53965&agencynum=17647094&SiteResourceAgencyNum=17646767
LD-1700,Emergency Room Care,17646543,Interior Health Authority,17647094,Emergency Services Network,Provides 24-hour emergency health care and trauma services in many hospital sites. Operating hours may vary in rural communities that provide emergency care; individuals are encouraged to call ahead to confirm services will be available upon their arrival. Services address urgent care needs for individuals who walk into the department or are transported by ground or air ambulance. Services are prioritized based on the severity of the patient's condition upon arrival.,17647130,17647129,2506738311,http://www.interiorhealth.ca/FindUs/_layouts/FindUs/info.aspx?type=Service&loc=&svc=Emergency Health Services&ploc=,,N,,"Mon - Thu, 8:30 a.m. - 5 p.m.; Fri, 8:30 a.m. - 12:30 p.m.; Closed Sat, Sun and statutory holidays.",858 Main Street,Blue River,BC,V0E 1J0,52.10618,-119.303431,http://www.healthlinkbc.ca/find/resource.asp?First=1&org=53965&agencynum=17647094&SiteResourceAgencyNum=17647129
LD-1700,Emergency Room Care,17646543,Interior Health Authority,17647094,Emergency Services Network,Provides 24-hour emergency health care and trauma services in many hospital sites. Operating hours may vary in rural communities that provide emergency care; individuals are encouraged to call ahead to confirm services will be available upon their arrival. Services address urgent care needs for individuals who walk into the department or are transported by ground or air ambulance. Services are prioritized based on the severity of the patient's condition upon arrival.,17647136,17647135,2504432100,http://www.interiorhealth.ca/FindUs/_layouts/FindUs/info.aspx?type=Service&loc=&svc=Emergency Health Services&ploc=,,N,,24-Jul,7649 22nd Street,Grand Forks,BC,V0H 1H2,49.030363,-118.467838,http://www.healthlinkbc.ca/find/resource.asp?First=1&org=53965&agencynum=17647094&SiteResourceAgencyNum=17647135
LD-1700,Emergency Room Care,17650682,Island Health,17651530,Emergency Services,"Provides in-hospital emergency care for patients who have acute, life-threatening injuries, or severe illnesses.",17651535,17650856,2508502141,http://www.viha.ca/locations/campbell_river_district_general_hospital.htm,info@viha.ca,N,,,375 2nd Avenue,Campbell River,BC,V9W 3V1,50.011132,-125.243155,http://www.healthlinkbc.ca/find/resource.asp?First=1&org=53965&agencynum=17651530&SiteResourceAgencyNum=17650856
LD-1700,Emergency Room Care,17646543,Interior Health Authority,17647094,Emergency Services Network,Provides 24-hour emergency health care and trauma services in many hospital sites. Operating hours may vary in rural communities that provide emergency care; individuals are encouraged to call ahead to confirm services will be available upon their arrival. Services address urgent care needs for individuals who walk into the department or are transported by ground or air ambulance. Services are prioritized based on the severity of the patient's condition upon arrival.,17647110,17646585,2503924411,http://www.interiorhealth.ca/FindUs/_layouts/FindUs/info.aspx?type=Service&loc=&svc=Emergency Health Services&ploc=,,N,,24-Jul,517 6th Avenue N,Williams Lake,BC,V2G 2G8,52.137421,-122.143656,http://www.healthlinkbc.ca/find/resource.asp?First=1&org=53965&agencynum=17647094&SiteResourceAgencyNum=17646585
LD-1700,Emergency Room Care,17646543,Interior Health Authority,17647094,Emergency Services Network,Provides 24-hour emergency health care and trauma services in many hospital sites. Operating hours may vary in rural communities that provide emergency care; individuals are encouraged to call ahead to confirm services will be available upon their arrival. Services address urgent care needs for individuals who walk into the department or are transported by ground or air ambulance. Services are prioritized based on the severity of the patient's condition upon arrival.,17647122,17646810,2503657711,http://www.interiorhealth.ca/FindUs/_layouts/FindUs/info.aspx?type=Service&loc=&svc=Emergency Health Services&ploc=,,N,,"Mon - Sun, 8 a.m. - 7 p.m.",709 10th Street,Castlegar,BC,V1N 2H7,49.314395,-117.659998,http://www.healthlinkbc.ca/find/resource.asp?First=1&org=53965&agencynum=17647094&SiteResourceAgencyNum=17646810
LD-1700,Emergency Room Care,17646543,Interior Health Authority,17647094,Emergency Services Network,Provides 24-hour emergency health care and trauma services in many hospital sites. Operating hours may vary in rural communities that provide emergency care; individuals are encouraged to call ahead to confirm services will be available upon their arrival. Services address urgent care needs for individuals who walk into the department or are transported by ground or air ambulance. Services are prioritized based on the severity of the patient's condition upon arrival.,17647133,17646759,2506793312,http://www.interiorhealth.ca/FindUs/_layouts/FindUs/info.aspx?type=Service&loc=&svc=Emergency Health Services&ploc=,,N,,"Hours vary, please call for hours of operation.",826 Thompson Avenue,Chase,BC,V0E 1M0,50.818238,-119.68568,http://www.healthlinkbc.ca/find/resource.asp?First=1&org=53965&agencynum=17647094&SiteResourceAgencyNum=17646759
LD-1700,Emergency Room Care,17650682,Island Health,17651530,Emergency Services,"Provides in-hospital emergency care for patients who have acute, life-threatening injuries, or severe illnesses.",17651543,17650887,2509745585,http://www.viha.ca/locations/cormorant_island_health_centre.htm,info@viha.ca,Y,,,49 School Road,Alert Bay,BC,V0N 1A0,50.583656,-126.926661,http://www.healthlinkbc.ca/find/resource.asp?First=1&org=53965&agencynum=17651530&SiteResourceAgencyNum=17650887
LD-1700,Emergency Room Care,17650682,Island Health,17651530,Emergency Services,"Provides in-hospital emergency care for patients who have acute, life-threatening injuries, or severe illnesses.",17651537,17650858,2507093000,http://www.viha.ca/locations/cowichan_district_hospital.htm,info@viha.ca,N,,,3045 Gibbins Road,Duncan,BC,V9L 1E5,48.785009,-123.723323,http://www.healthlinkbc.ca/find/resource.asp?First=1&org=53965&agencynum=17651530&SiteResourceAgencyNum=17650858
LD-1700,Emergency Room Care,17646543,Interior Health Authority,17647094,Emergency Services Network,Provides 24-hour emergency health care and trauma services in many hospital sites. Operating hours may vary in rural communities that provide emergency care; individuals are encouraged to call ahead to confirm services will be available upon their arrival. Services address urgent care needs for individuals who walk into the department or are transported by ground or air ambulance. Services are prioritized based on the severity of the patient's condition upon arrival.,17647099,17647098,2504282286,http://www.interiorhealth.ca/FindUs/_layouts/FindUs/info.aspx?type=Service&loc=&svc=Emergency Health Services&ploc=,,N,,24-Jul,312 15th Avenue N,Creston,BC,V0B 1G0,49.098702,-116.508309,http://www.healthlinkbc.ca/find/resource.asp?First=1&org=53965&agencynum=17647094&SiteResourceAgencyNum=17647098
LD-1700,Emergency Room Care,17646543,Interior Health Authority,17647094,Emergency Services Network,Provides 24-hour emergency health care and trauma services in many hospital sites. Operating hours may vary in rural communities that provide emergency care; individuals are encouraged to call ahead to confirm services will be available upon their arrival. Services address urgent care needs for individuals who walk into the department or are transported by ground or air ambulance. Services are prioritized based on the severity of the patient's condition upon arrival.,17647111,17646548,2506742244,http://www.interiorhealth.ca/FindUs/_layouts/FindUs/info.aspx?type=Service&loc=&svc=Emergency Health Services&ploc=,,N,,24-Jul,640 Park Drive,Clearwater,BC,V0E 1N0,51.647651,-120.018361,http://www.healthlinkbc.ca/find/resource.asp?First=1&org=53965&agencynum=17647094&SiteResourceAgencyNum=17646548
LD-1700,Emergency Room Care,17646543,Interior Health Authority,17647094,Emergency Services Network,Provides 24-hour emergency health care and trauma services in many hospital sites. Operating hours may vary in rural communities that provide emergency care; individuals are encouraged to call ahead to confirm services will be available upon their arrival. Services address urgent care needs for individuals who walk into the department or are transported by ground or air ambulance. Services are prioritized based on the severity of the patient's condition upon arrival.,17647108,17646893,2504265281,http://www.interiorhealth.ca/FindUs/_layouts/FindUs/info.aspx?type=Service&loc=&svc=Emergency Health Services&ploc=,,N,,24-Jul,13 24th Avenue N,Cranbrook,BC,V1C 3H9,49.512483,-115.748688,http://www.healthlinkbc.ca/find/resource.asp?First=1&org=53965&agencynum=17647094&SiteResourceAgencyNum=17646893
LD-1700,Emergency Room Care,17646543,Interior Health Authority,17647094,Emergency Services Network,Provides 24-hour emergency health care and trauma services in many hospital sites. Operating hours may vary in rural communities that provide emergency care; individuals are encouraged to call ahead to confirm services will be available upon their arrival. Services address urgent care needs for individuals who walk into the department or are transported by ground or air ambulance. Services are prioritized based on the severity of the patient's condition upon arrival.,21397690,17647530,2502697313,www.interiorhealth.ca/FindUs/_layouts/FindUs/info.aspx?type=Service&loc=&svc=Emergency Health Services&ploc=,,N,,24-Jul,322 Monashee Avenue,Edgewood,BC,V0G 1J0,49.77841,-118.146151,http://www.healthlinkbc.ca/find/resource.asp?First=1&org=53965&agencynum=17647094&SiteResourceAgencyNum=17647530
LD-1700,Emergency Room Care,17646543,Interior Health Authority,17647094,Emergency Services Network,Provides 24-hour emergency health care and trauma services in many hospital sites. Operating hours may vary in rural communities that provide emergency care; individuals are encouraged to call ahead to confirm services will be available upon their arrival. Services address urgent care needs for individuals who walk into the department or are transported by ground or air ambulance. Services are prioritized based on the severity of the patient's condition upon arrival.,17647109,17646590,2504234453,http://www.interiorhealth.ca/FindUs/_layouts/FindUs/info.aspx?type=Service&loc=&svc=Emergency Health Services&ploc=,,N,,24-Jul,1501 5th Avenue,Fernie,BC,V0B 1M0,49.51284,-115.0566,http://www.healthlinkbc.ca/find/resource.asp?First=1&org=53965&agencynum=17647094&SiteResourceAgencyNum=17646590
LD-1700,Emergency Room Care,17646543,Interior Health Authority,17647094,Emergency Services Network,Provides 24-hour emergency health care and trauma services in many hospital sites. Operating hours may vary in rural communities that provide emergency care; individuals are encouraged to call ahead to confirm services will be available upon their arrival. Services address urgent care needs for individuals who walk into the department or are transported by ground or air ambulance. Services are prioritized based on the severity of the patient's condition upon arrival.,17647137,17646829,2508652247,http://www.interiorhealth.ca/FindUs/_layouts/FindUs/info.aspx?type=Service&loc=&svc=Emergency Health Services&ploc=,,N,,"Mon - Fri, 8 a.m. - 7 p.m.",212 Alpine Way,Elkford,BC,V0B 1H0,50.021306,-114.918185,http://www.healthlinkbc.ca/find/resource.asp?First=1&org=53965&agencynum=17647094&SiteResourceAgencyNum=17646829
LD-1700,Emergency Room Care,17650682,Island Health,17651530,Emergency Services,"Provides in-hospital emergency care for patients who have acute, life-threatening injuries, or severe illnesses.",17651544,17650759,2502832626,http://www.viha.ca/locations/gold_river_health_centre.htm,info@viha.ca,N,,"Mon - Fri, 8:30 a.m. - 5 p.m.",601 Trumpeter Drive,Gold River,BC,V0P 1G0,49.78125,-126.048774,http://www.healthlinkbc.ca/find/resource.asp?First=1&org=53965&agencynum=17651530&SiteResourceAgencyNum=17650759
LD-1700,Emergency Room Care,17646543,Interior Health Authority,17647094,Emergency Services Network,Provides 24-hour emergency health care and trauma services in many hospital sites. Operating hours may vary in rural communities that provide emergency care; individuals are encouraged to call ahead to confirm services will be available upon their arrival. Services address urgent care needs for individuals who walk into the department or are transported by ground or air ambulance. Services are prioritized based on the severity of the patient's condition upon arrival.,17647106,17647105,2503445271,http://www.interiorhealth.ca/FindUs/_layouts/FindUs/info.aspx?type=Service&loc=&svc=Emergency Health Services&ploc=,,N,,24-Jul,835 9th Avenue South,Golden,BC,V0A 1H0,51.296792,-116.967372,http://www.healthlinkbc.ca/find/resource.asp?First=1&org=53965&agencynum=17647094&SiteResourceAgencyNum=17647105
LD-1700,Emergency Room Care,17646543,Interior Health Authority,17647094,Emergency Services Network,Provides 24-hour emergency health care and trauma services in many hospital sites. Operating hours may vary in rural communities that provide emergency care; individuals are encouraged to call ahead to confirm services will be available upon their arrival. Services address urgent care needs for individuals who walk into the department or are transported by ground or air ambulance. Services are prioritized based on the severity of the patient's condition upon arrival.,17647104,17647103,2503429201,http://www.interiorhealth.ca/FindUs/_layouts/FindUs/info.aspx?type=Service&loc=&svc=Emergency Health Services&ploc=,,N,,24-Jul,850 10th Avenue,Invermere,BC,V0A 1A0,50.506722,-116.033417,http://www.healthlinkbc.ca/find/resource.asp?First=1&org=53965&agencynum=17647094&SiteResourceAgencyNum=17647103
LD-1700,Emergency Room Care,17646543,Interior Health Authority,17647094,Emergency Services Network,Provides 24-hour emergency health care and trauma services in many hospital sites. Operating hours may vary in rural communities that provide emergency care; individuals are encouraged to call ahead to confirm services will be available upon their arrival. Services address urgent care needs for individuals who walk into the department or are transported by ground or air ambulance. Services are prioritized based on the severity of the patient's condition upon arrival.,17647125,17646738,2508624000,http://www.interiorhealth.ca/FindUs/_layouts/FindUs/info.aspx?type=Service&loc=&svc=Emergency Health Services&ploc=,,N,,24-Jul,2268 Pandosy Street,Kelowna,BC,V1Y 1T2,49.873281,-119.491273,http://www.healthlinkbc.ca/find/resource.asp?First=1&org=53965&agencynum=17647094&SiteResourceAgencyNum=17646738
LD-1700,Emergency Room Care,17646543,Interior Health Authority,17647094,Emergency Services Network,Provides 24-hour emergency health care and trauma services in many hospital sites. Operating hours may vary in rural communities that provide emergency care; individuals are encouraged to call ahead to confirm services will be available upon their arrival. Services address urgent care needs for individuals who walk into the department or are transported by ground or air ambulance. Services are prioritized based on the severity of the patient's condition upon arrival.,17647126,17646551,2503683311,http://www.interiorhealth.ca/FindUs/_layouts/FindUs/info.aspx?type=Service&loc=&svc=Emergency Health Services&ploc=,,N,,24-Jul,1200 Hospital Bench,Trail,BC,V1R 4M1,49.10318,-117.70147,http://www.healthlinkbc.ca/find/resource.asp?First=1&org=53965&agencynum=17647094&SiteResourceAgencyNum=17646551
LD-1700,Emergency Room Care,17646543,Interior Health Authority,17647094,Emergency Services Network,Provides 24-hour emergency health care and trauma services in many hospital sites. Operating hours may vary in rural communities that provide emergency care; individuals are encouraged to call ahead to confirm services will be available upon their arrival. Services address urgent care needs for individuals who walk into the department or are transported by ground or air ambulance. Services are prioritized based on the severity of the patient's condition upon arrival.,17647113,17646896,2503523111,http://www.interiorhealth.ca/FindUs/_layouts/FindUs/info.aspx?type=Service&loc=&svc=Emergency Health Services&ploc=,,N,,24-Jul,3 View Street,Nelson,BC,V1L 2V1,49.495025,-117.284817,http://www.healthlinkbc.ca/find/resource.asp?First=1&org=53965&agencynum=17647094&SiteResourceAgencyNum=17646896
LD-1700,Emergency Room Care,17650682,Island Health,17651530,Emergency Services,"Provides in-hospital emergency care for patients who have acute, life-threatening injuries, or severe illnesses.",17651541,17650864,2505384800,http://www.viha.ca/locations/lady_minto_gulf_islands_hospital.htm,info@viha.ca,N,,24-Jul,135 Crofton Road,SaltSpring Island,BC,V8K 1T1,48.861445,-123.508599,http://www.healthlinkbc.ca/find/resource.asp?First=1&org=53965&agencynum=17651530&SiteResourceAgencyNum=17650864
LD-1700,Emergency Room Care,17646543,Interior Health Authority,17647094,Emergency Services Network,Provides 24-hour emergency health care and trauma services in many hospital sites. Operating hours may vary in rural communities that provide emergency care; individuals are encouraged to call ahead to confirm services will be available upon their arrival. Services address urgent care needs for individuals who walk into the department or are transported by ground or air ambulance. Services are prioritized based on the severity of the patient's condition upon arrival.,17647112,17646943,2502564233,http://www.interiorhealth.ca/FindUs/_layouts/FindUs/info.aspx?type=Service&loc=&svc=Emergency Health Services&ploc=,,N,,24-Jul,951 Murray Street,Lillooet,BC,V0K 1V0,50.689254,-121.939063,http://www.healthlinkbc.ca/find/resource.asp?First=1&org=53965&agencynum=17647094&SiteResourceAgencyNum=17646943
LD-1700,Emergency Room Care,17646543,Interior Health Authority,17647094,Emergency Services Network,Provides 24-hour emergency health care and trauma services in many hospital sites. Operating hours may vary in rural communities that provide emergency care; individuals are encouraged to call ahead to confirm services will be available upon their arrival. Services address urgent care needs for individuals who walk into the department or are transported by ground or air ambulance. Services are prioritized based on the severity of the patient's condition upon arrival.,17647114,17646757,2505239414,www.interiorhealth.ca/FindUs/_layouts/FindUs/info.aspx?type=Service&loc=&svc=Emergency Health Services&ploc=,,N,,Emergency services temporarily closed; please call for availability.,5 Beryl Drive,Logan Lake,BC,V0K 1W0,50.497372,-120.815362,http://www.healthlinkbc.ca/find/resource.asp?First=1&org=53965&agencynum=17647094&SiteResourceAgencyNum=17646757
LD-1700,Emergency Room Care,17650682,Island Health,17651530,Emergency Services,"Provides in-hospital emergency care for patients who have acute, life-threatening injuries, or severe illnesses.",17651538,17650860,2507557691,http://www.viha.ca,info@viha.ca,N,,,1200 Dufferin Crescent,Nanaimo,BC,V9S 2B7,49.183502,-123.969945,http://www.healthlinkbc.ca/find/resource.asp?First=1&org=53965&agencynum=17651530&SiteResourceAgencyNum=17650860
LD-1700,Emergency Room Care,17646543,Interior Health Authority,17647094,Emergency Services Network,Provides 24-hour emergency health care and trauma services in many hospital sites. Operating hours may vary in rural communities that provide emergency care; individuals are encouraged to call ahead to confirm services will be available upon their arrival. Services address urgent care needs for individuals who walk into the department or are transported by ground or air ambulance. Services are prioritized based on the severity of the patient's condition upon arrival.,17647100,17646747,2503782242,http://www.interiorhealth.ca/FindUs/_layouts/FindUs/info.aspx?type=Service&loc=&svc=Emergency Health Services&ploc=,,N,,24-Jul,3451 Voght Street,Merritt,BC,V1K 1C6,50.121468,-120.771016,http://www.healthlinkbc.ca/find/resource.asp?First=1&org=53965&agencynum=17647094&SiteResourceAgencyNum=17646747
LD-1700,Emergency Room Care,17646543,Interior Health Authority,17647094,Emergency Services Network,Provides 24-hour emergency health care and trauma services in many hospital sites. Operating hours may vary in rural communities that provide emergency care; individuals are encouraged to call ahead to confirm services will be available upon their arrival. Services address urgent care needs for individuals who walk into the department or are transported by ground or air ambulance. Services are prioritized based on the severity of the patient's condition upon arrival.,17647107,17646582,2504924000,http://www.interiorhealth.ca/FindUs/_layouts/FindUs/info.aspx?type=Service&loc=&svc=Emergency Health Services&ploc=,,N,,24-Jul,550 Carmi Avenue,Penticton,BC,V2A 3G6,49.482657,-119.578687,http://www.healthlinkbc.ca/find/resource.asp?First=1&org=53965&agencynum=17647094&SiteResourceAgencyNum=17646582
LD-1700,Emergency Room Care,17650682,Island Health,17651530,Emergency Services,"Provides in-hospital emergency care for patients who have acute, life-threatening injuries, or severe illnesses.",17651542,17651079,2502843555,http://www.viha.ca,info@viha.ca,N,,Mon 08:30 - 16:30; Tue 08:30 - 16:30; Wed 08:30 - 16:30; Thu 08:30 - 16:30; Fri 08:30 - 16:30;,1090 Marine Drive,Port Alice,BC,V0N 2N0,50.4255,-127.487219,http://www.healthlinkbc.ca/find/resource.asp?First=1&org=53965&agencynum=17651530&SiteResourceAgencyNum=17651079
LD-1700,Emergency Room Care,17650682,Island Health,17651530,Emergency Services,"Provides in-hospital emergency care for patients who have acute, life-threatening injuries, or severe illnesses.",17651532,17651090,2509026011,http://www.viha.ca/locations/port_hardy_hospital.htm,info@viha.ca,N,,,9120 Granville Street,Port Hardy,BC,V0N 2P0,50.720244,-127.503215,http://www.healthlinkbc.ca/find/resource.asp?First=1&org=53965&agencynum=17651530&SiteResourceAgencyNum=17651090
LD-1700,Emergency Room Care,17650682,Island Health,17651530,Emergency Services,"Provides in-hospital emergency care for patients who have acute, life-threatening injuries, or severe illnesses.",17651531,17650890,2509564461,http://www.viha.ca/locations/port_mcneill_district_hospital.htm,info@viha.ca,N,,24-Jul,2750 Kingcome Place,Port Mcneill,BC,V0N 2R0,50.58026,-127.067379,http://www.healthlinkbc.ca/find/resource.asp?First=1&org=53965&agencynum=17651530&SiteResourceAgencyNum=17650890
LD-1700,Emergency Room Care,17646543,Interior Health Authority,17647094,Emergency Services Network,Provides 24-hour emergency health care and trauma services in many hospital sites. Operating hours may vary in rural communities that provide emergency care; individuals are encouraged to call ahead to confirm services will be available upon their arrival. Services address urgent care needs for individuals who walk into the department or are transported by ground or air ambulance. Services are prioritized based on the severity of the patient's condition upon arrival.,17647097,17647096,2502953233,http://www.interiorhealth.ca/FindUs/_layouts/FindUs/info.aspx?type=Service&loc=&svc=Emergency Health Services&ploc=,,N,,24-Jul,98 Ridgewood Drive,Princeton,BC,V0X 1W0,49.453436,-120.526235,http://www.healthlinkbc.ca/find/resource.asp?First=1&org=53965&agencynum=17647094&SiteResourceAgencyNum=17647096
LD-1700,Emergency Room Care,17646543,Interior Health Authority,17647094,Emergency Services Network,Provides 24-hour emergency health care and trauma services in many hospital sites. Operating hours may vary in rural communities that provide emergency care; individuals are encouraged to call ahead to confirm services will be available upon their arrival. Services address urgent care needs for individuals who walk into the department or are transported by ground or air ambulance. Services are prioritized based on the severity of the patient's condition upon arrival.,17647117,17646569,2508372131,http://www.interiorhealth.ca/FindUs/_layouts/FindUs/info.aspx?type=Service&loc=&svc=Emergency Health Services&ploc=,,N,,24-Jul,1200 Newlands Road,Revelstoke,BC,V0E 2S0,50.976799,-118.191902,http://www.healthlinkbc.ca/find/resource.asp?First=1&org=53965&agencynum=17647094&SiteResourceAgencyNum=17646569
LD-1700,Emergency Room Care,17646543,Interior Health Authority,17647094,Emergency Services Network,Provides 24-hour emergency health care and trauma services in many hospital sites. Operating hours may vary in rural communities that provide emergency care; individuals are encouraged to call ahead to confirm services will be available upon their arrival. Services address urgent care needs for individuals who walk into the department or are transported by ground or air ambulance. Services are prioritized based on the severity of the patient's condition upon arrival.,17647128,17646898,2503745111,http://www.interiorhealth.ca/FindUs/_layouts/FindUs/info.aspx?type=Service&loc=&svc=Emergency Health Services&ploc=,,N,,24-Jul,311 Columbia Street,Kamloops,BC,V2C 2T1,50.671418,-120.334025,http://www.healthlinkbc.ca/find/resource.asp?First=1&org=53965&agencynum=17647094&SiteResourceAgencyNum=17646898
LD-1700,Emergency Room Care,17650682,Island Health,17651530,Emergency Services,"Provides in-hospital emergency care for patients who have acute, life-threatening injuries, or severe illnesses.",17651534,17650835,2503708000,http://www.viha.ca/locations/royal_jubilee_hospital.htm,info@viha.ca,N,,24-Jul,1952 Bay Street,Victoria,BC,V8R 1J8,48.434061,-123.326541,http://www.healthlinkbc.ca/find/resource.asp?First=1&org=53965&agencynum=17651530&SiteResourceAgencyNum=17650835
LD-1700,Emergency Room Care,17650682,Island Health,17651530,Emergency Services,"Provides in-hospital emergency care for patients who have acute, life-threatening injuries, or severe illnesses.",17651533,17650866,2505447676,http://www.viha.ca/locations/saanich_peninsula_hospital.htm,info@viha.ca,N,,24-Jul,2166 Mount Newton Cross Road,Saanichton,BC,V8M 2B2,48.594199,-123.411323,http://www.healthlinkbc.ca/find/resource.asp?First=1&org=53965&agencynum=17651530&SiteResourceAgencyNum=17650866
LD-1700,Emergency Room Care,17646543,Interior Health Authority,17647094,Emergency Services Network,Provides 24-hour emergency health care and trauma services in many hospital sites. Operating hours may vary in rural communities that provide emergency care; individuals are encouraged to call ahead to confirm services will be available upon their arrival. Services address urgent care needs for individuals who walk into the department or are transported by ground or air ambulance. Services are prioritized based on the severity of the patient's condition upon arrival.,17647119,17647118,2508333636,http://www.interiorhealth.ca/FindUs/_layouts/FindUs/info.aspx?type=Service&loc=&svc=Emergency Health Services&ploc=,,N,,24-Jul,601 10th Street NE,Salmon Arm,BC,V1E 4N6,50.704586,-119.274422,http://www.healthlinkbc.ca/find/resource.asp?First=1&org=53965&agencynum=17647094&SiteResourceAgencyNum=17647118
LD-1700,Emergency Room Care,17646543,Interior Health Authority,17647094,Emergency Services Network,Provides 24-hour emergency health care and trauma services in many hospital sites. Operating hours may vary in rural communities that provide emergency care; individuals are encouraged to call ahead to confirm services will be available upon their arrival. Services address urgent care needs for individuals who walk into the department or are transported by ground or air ambulance. Services are prioritized based on the severity of the patient's condition upon arrival.,17647131,17646669,2503587911,http://www.interiorhealth.ca/FindUs/_layouts/FindUs/info.aspx?type=Service&loc=&svc=Emergency Health Services&ploc=,,N,,Emergency Services: 24/7,401 Galena Avenue,New Denver,BC,V0G 1S0,49.984216,-117.373941,http://www.healthlinkbc.ca/find/resource.asp?First=1&org=53965&agencynum=17647094&SiteResourceAgencyNum=17646669
LD-1700,Emergency Room Care,17646543,Interior Health Authority,17647094,Emergency Services Network,Provides 24-hour emergency health care and trauma services in many hospital sites. Operating hours may vary in rural communities that provide emergency care; individuals are encouraged to call ahead to confirm services will be available upon their arrival. Services address urgent care needs for individuals who walk into the department or are transported by ground or air ambulance. Services are prioritized based on the severity of the patient's condition upon arrival.,17647102,17647101,2504985000,http://www.interiorhealth.ca/FindUs/_layouts/FindUs/info.aspx?type=Service&loc=&svc=Emergency Health Services&ploc=,,N,,24-Jul,911 McKinney Road,Oliver,BC,V0H 1T3,49.184285,-119.53841,http://www.healthlinkbc.ca/find/resource.asp?First=1&org=53965&agencynum=17647094&SiteResourceAgencyNum=17647101
LD-1700,Emergency Room Care,17650682,Island Health,17651530,Emergency Services,"Provides in-hospital emergency care for patients who have acute, life-threatening injuries, or severe illnesses.",17651540,17650862,2507311370,http://www.viha.ca/locations/west_coast_general_hospital.htm,info@viha.ca,N,,,3949 Port Alberni Highway,Port Alberni,BC,V9Y 4S1,49.248801,-124.781792,http://www.healthlinkbc.ca/find/resource.asp?First=1&org=53965&agencynum=17651530&SiteResourceAgencyNum=17650862
LD-1700,Emergency Room Care,17650682,Island Health,17651530,Emergency Services,"Provides in-hospital emergency care for patients who have acute, life-threatening injuries, or severe illnesses.",17651545,17650941,2507614274,http://www.viha.ca/locations/zeballos.htm,info@viha.ca,N,,Mon 830 - 1700; Tue 830 - 1700; Wed 830 - 1700; Thu 830 - 1700; Fri 830 - 1700; Closed between 1230 - 1300 for lunch.,500 Parkway Drive,Zeballos,BC,V0P 2A0,49.989011,-126.851068,http://www.healthlinkbc.ca/find/resource.asp?First=1&org=53965&agencynum=17651530&SiteResourceAgencyNum=17650941
LD-1700,Emergency Room Care,17644351,Fraser Health Authority,17992341,Pediatric Emergency Department,"Provides emergency medical care for children 0 - 17 years of age. Staff includes: emergency physicians, pediatric-trained emergency nurses and psychiatric nurses, a clinical nurse educator, and child life specialists. Offers a family centered approach, with child-friendly space separate from the adult emergency department. Separate public entrance available with a walk-in and triage zone. Private treatment rooms as well as a designated area for pediatric mental health patients are available. Large treatment rooms will accommodate more family members with separate walls and glass doors to facilitate patient privacy. Located on the first floor of the critical care tower.",17992333,17644365,6049534706,,,N,Full service interpreters available for most languages.,24-Jul,13750 96 Avenue,Surrey,BC,V3V 1Z2,49.177003,-122.842316,http://www.healthlinkbc.ca/find/resource.asp?First=1&org=53965&agencynum=17992341&SiteResourceAgencyNum=17644365